     3.02           N: GNSS NAV DATA    C: BEIDOU           RINEX VERSION / TYPE
LgsRinex v1.6.2.0   SMO                 20170504 011337 UTC PGM / RUN BY / DATE
BDSA   1.5832D-08  1.1176D-07 -1.4901D-06  3.2187D-06       IONOSPHERIC CORR
BDSB   1.5155D+05 -1.2616D+06  8.3231D+06 -8.3231D+06       IONOSPHERIC CORR
BDUT  9.3132257462D-10 0.000000000D+00 342294  591          TIME SYSTEM CORR
     4     4   573     6                                    LEAP SECONDS
                                                            END OF HEADER
C06 2017 05 03 21 00 00 5.089353071526D-04 3.500542078427D-10 0.000000000000D+00
     1.000000000000D+00 2.193750000000D+02 1.232551394281D-09-2.199818950329D+00
     6.857328116894D-06 5.661606206559D-03 1.665065065026D-05 6.492966701508D+03
     3.348000000000D+05-1.485459506512D-07-4.220895667304D-01-1.187436282635D-07
     9.460702336798D-01-2.697187500000D+02-2.328104833380D+00-2.007940702597D-09
     3.357282785110D-10                    5.910000000000D+02                   
     2.000000000000D+00 0.000000000000D+00 1.019999995577D-08-8.000000106811D-10
     3.348000000000D+05 0.000000000000D+00                                      
C03 2017 05 03 21 00 00 2.350887516513D-04 5.037481543013D-11 0.000000000000D+00
     1.000000000000D+00 2.356250000000D+02-8.507497484267D-10-1.068838716806D+00
     7.944647222757D-06 6.435662508011D-04 6.726942956448D-06 6.493370780945D+03
     3.348000000000D+05 8.707866072655D-08 2.500415113332D+00 9.313225746155D-09
     1.089072611789D-01-2.021093750000D+02-2.209293499771D-01 1.808646787893D-09
    -2.964409273609D-11                    5.910000000000D+02                   
     2.000000000000D+00 0.000000000000D+00 7.100000143367D-09-9.399999889581D-09
     3.348004000000D+05 0.000000000000D+00                                      
C01 2017 05 03 21 00 00-3.819027915597D-05 4.185363167153D-11 0.000000000000D+00
     1.000000000000D+00 1.678437500000D+02-9.721833338361D-10 2.764016196415D+00
     5.740672349930D-06 1.543869730085D-04 7.414724677801D-06 6.493414609909D+03
     3.348000000000D+05 4.190951585770D-08 2.422497790871D+00 2.793967723846D-09
     1.133676632925D-01-2.240312500000D+02 2.822630974596D+00 1.888292855412D-09
    -7.964617160239D-11                    5.910000000000D+02                   
     2.000000000000D+00 0.000000000000D+00 1.420000028673D-08-1.039999997232D-08
     3.348004000000D+05 0.000000000000D+00                                      
C05 2017 05 03 21 00 00-3.735995851457D-04 1.123900972289D-11 0.000000000000D+00
     1.000000000000D+00 3.119062500000D+02-6.778853589573D-10-1.040619233328D+00
     1.041311770678D-05 2.383925020695D-04 9.546056389809D-08 6.493405429840D+03
     3.348000000000D+05-1.043081283569D-07 2.713231339079D+00-1.550652086735D-07
     1.111866733370D-01 1.781250000000D+00-1.366771217587D+00 1.811504057869D-09
     1.785788704411D-11                    5.910000000000D+02                   
     2.000000000000D+00 0.000000000000D+00 2.700000001354D-09-8.899999848211D-09
     3.348004000000D+05 0.000000000000D+00                                      
C02 2017 05 03 21 00 00 2.303620567545D-04-2.613997907019D-11 0.000000000000D+00
     1.000000000000D+00 3.227656250000D+02-1.308983144099D-09 4.323332541297D-02
     1.078657805920D-05 3.121248446405D-04 3.403984010220D-07 6.493421495438D+03
     3.348000000000D+05 5.727633833885D-08 2.711504294066D+00-1.010484993458D-07
     9.439874772104D-02-7.906250000000D+00-2.005683559399D+00 2.402957166581D-09
     7.357449371970D-11                    5.910000000000D+02                   
     2.000000000000D+00 0.000000000000D+00 5.400000002709D-09-1.400000027019D-08
     3.348004000000D+05 0.000000000000D+00                                      
C04 2017 05 03 21 00 00-2.264762297273D-04 2.664624076942D-11 0.000000000000D+00
     1.000000000000D+00 2.700468750000D+02-1.563993712317D-09 1.894748863461D+00
     9.089242666960D-06 3.608522238210D-04 6.377696990967D-06 6.493433509827D+03
     3.348000000000D+05-2.793967723846D-09 2.568544283528D+00 5.774199962616D-08
     9.734414163137D-02-1.968750000000D+02-2.388788827260D+00 2.563678158651D-09
    -2.178662111829D-11                    5.910000000000D+02                   
     2.000000000000D+00 0.000000000000D+00 5.800000035805D-09-8.199999790293D-09
     3.348004000000D+05 0.000000000000D+00                                      
C10 2017 05 03 22 00 00 1.124537084252D-05-1.943067928778D-11 0.000000000000D+00
     1.000000000000D+00 3.532812500000D+01 1.017185224939D-09 2.352841721873D+00
     1.593027263880D-06 4.358367063105D-03 1.157633960247D-05 6.493638982773D+03
     3.384000000000D+05 3.445893526077D-08 1.625357793465D+00 1.555308699608D-07
     9.291656154775D-01-1.233125000000D+02-2.784040098285D+00-2.072229277061D-09
    -3.903734002719D-10                    5.910000000000D+02                   
     2.000000000000D+00 0.000000000000D+00 8.799999839937D-09 3.100000034451D-09
     3.384000000000D+05 0.000000000000D+00                                      
C08 2017 05 03 22 00 00-8.511123014614D-04 2.609734650605D-11 0.000000000000D+00
     1.000000000000D+00-2.169062500000D+02 1.219693679388D-09 5.361163565410D-01
    -6.967689841986D-06 2.602081396617D-03 1.483131200075D-06 6.493393951416D+03
     3.384000000000D+05 2.621673047543D-07-2.526319626964D+00-2.072192728519D-07
     1.008429606695D+00 1.961875000000D+02-2.632386408866D+00-2.389385134194D-09
     4.643050700859D-12                    5.910000000000D+02                   
     2.000000000000D+00 0.000000000000D+00 1.440000030328D-08-1.000000013351D-10
     3.384000000000D+05 0.000000000000D+00                                      
C07 2017 05 03 22 00 00 8.746003732085D-05-1.044320185883D-11 0.000000000000D+00
     1.000000000000D+00 4.164062500000D+01 1.054329623607D-09 2.711729810203D+00
     1.765321940184D-06 5.352221429348D-03 1.222873106599D-05 6.492826799393D+03
     3.384000000000D+05-9.266659617424D-08 1.634552729522D+00 1.327134668827D-07
     9.278037455387D-01-1.346093750000D+02-2.772308817767D+00-2.100801754779D-09
    -3.839445705811D-10                    5.910000000000D+02                   
     2.000000000000D+00 0.000000000000D+00 1.699999963023D-08 1.400000004814D-09
     3.384000000000D+05 0.000000000000D+00                                      
C13 2017 05 03 22 00 00 9.172632126138D-04-1.518429826319D-11 0.000000000000D+00
     1.000000000000D+00-2.105937500000D+02 1.386843528906D-09 5.842113156834D-01
    -7.114373147488D-06 2.642000908963D-03 3.073364496231D-07 6.493279226303D+03
     3.384000000000D+05-2.048909664154D-08-2.535277738528D+00-2.835877239704D-07
     9.684904202334D-01 2.167812500000D+02-3.118077889785D+00-2.442601676478D-09
    -5.500229091626D-11                    5.910000000000D+02                   
     2.000000000000D+00 0.000000000000D+00-7.100000143367D-09 3.400000059273D-09
     3.384000000000D+05 0.000000000000D+00                                      
C06 2017 05 03 22 00 00 5.101948045194D-04 3.499609491087D-10 0.000000000000D+00
     1.000000000000D+00 1.961718750000D+02 1.206121647002D-09-1.936836801553D+00
     6.117857992649D-06 5.660990602337D-03 1.701992005110D-05 6.492972475052D+03
     3.384000000000D+05-9.033828973770D-08-4.220964921846D-01-1.010484993458D-07
     9.460713776818D-01-2.815468750000D+02-2.328514329020D+00-2.025084322455D-09
     3.160846029360D-10                    5.910000000000D+02                   
     2.000000000000D+00 0.000000000000D+00 1.019999995577D-08-8.000000106811D-10
     3.384000000000D+05 0.000000000000D+00                                      
C03 2017 05 03 22 00 00 2.352703595534D-04 5.040678985324D-11 0.000000000000D+00
     1.000000000000D+00 2.677812500000D+02-9.496824437960D-10-8.027184726979D-01
     9.028241038322D-06 6.462738383561D-04 3.736000508070D-06 6.493379367828D+03
     3.384000000000D+05 3.492459654808D-08 2.709066569302D+00-9.778887033463D-09
     1.100682095599D-01-1.145781250000D+02-4.334323927589D-01 1.857220266466D-09
     3.035840676069D-11                    5.910000000000D+02                   
     2.000000000000D+00 0.000000000000D+00 7.100000143367D-09-9.399999889581D-09
     3.384004000000D+05 0.000000000000D+00                                      
C01 2017 05 03 22 00 00-3.803870640695D-05 4.196021308189D-11 0.000000000000D+00
     1.000000000000D+00 2.716250000000D+02-1.009684891251D-09 3.025727935428D+00
     9.127426892519D-06 1.576622016728D-04 5.176756531000D-06 6.493406684875D+03
     3.384000000000D+05 3.678724169731D-08 2.624754431078D+00-1.303851604462D-08
     1.126684718369D-01-1.598125000000D+02 2.620883062688D+00 1.976868002629D-09
    -3.678724685985D-11                    5.910000000000D+02                   
     2.000000000000D+00 0.000000000000D+00 1.420000028673D-08-1.039999997232D-08
     3.384004000000D+05 0.000000000000D+00                                      
C05 2017 05 03 22 00 00-3.735594218597D-04 1.121414072713D-11 0.000000000000D+00
     1.000000000000D+00 2.870468750000D+02-2.700112355924D-10-7.784344304957D-01
     9.615439921618D-06 2.382975071669D-04-3.864988684654D-06 6.493405105591D+03
     3.384000000000D+05-6.007030606270D-08 2.907139904560D+00-1.192092895508D-07
     1.169923602871D-01 1.198750000000D+02-1.560611830524D+00 1.400415450270D-09
     9.571827358501D-11                    5.910000000000D+02                   
     2.000000000000D+00 0.000000000000D+00 2.700000001354D-09-8.899999848211D-09
     3.384004000000D+05 0.000000000000D+00                                      
